[{"OBJECT_NAME":"IONOSFERA-M 1","OBJECT_ID":"2024-199A","EPOCH":"2026-03-09T23:07:06.038112","MEAN_MOTION":14.22735344,"ECCENTRICITY":0.00020871,"INCLINATION":98.7325,"RA_OF_ASC_NODE":303.1052,"ARG_OF_PERICENTER":75.9685,"MEAN_ANOMALY":284.1725,"EPHEMERIS_TYPE":0,"CLASSIFICATION_TYPE":"U","NORAD_CAT_ID":61735,"ELEMENT_SET_NO":999,"REV_AT_EPOCH":11359,"BSTAR":4.8219719e-5,"MEAN_MOTION_DOT":6.4e-7,"MEAN_MOTION_DDOT":0},{"OBJECT_NAME":"CZ-6A DEB","OBJECT_ID":"2022-151GE","EPOCH":"2026-03-09T05:11:47.511168","MEAN_MOTION":13.74893896,"ECCENTRICITY":0.02332285,"INCLINATION":98.8389,"RA_OF_ASC_NODE":353.6332,"ARG_OF_PERICENTER":112.6492,"MEAN_ANOMALY":249.9504,"EPHEMERIS_TYPE":0,"CLASSIFICATION_TYPE":"U","NORAD_CAT_ID":54454,"ELEMENT_SET_NO":999,"REV_AT_EPOCH":16581,"BSTAR":0.0027033586,"MEAN_MOTION_DOT":3.102e-5,"MEAN_MOTION_DDOT":0}]
